{
  "type": "FeatureCollection",
  "features": [
    {
      "type": "Feature",
      "properties": {
        "norad_id": 28890,
        "name": "BEIJING 1",
        "group": "dmc",
        "lat": 19.32278298607429,
        "lon": -72.77817080855029,
        "alt_km": 672.3002431521991,
        "timestamp": "2025-12-02T19:35:50.228357+00:00",
        "meta_object_name": "BEIJING 1",
        "meta_object_id": "2005-043A",
        "meta_epoch": "2025-12-02T12:18:09.432288",
        "meta_mean_motion": 14.6335015,
        "meta_eccentricity": 0.0014789,
        "meta_inclination": 98.2649,
        "meta_ra_of_asc_node": 103.9958,
        "meta_arg_of_pericenter": 172.4634,
        "meta_mean_anomaly": 187.6793,
        "meta_ephemeris_type": 0,
        "meta_classification_type": "U",
        "meta_norad_cat_id": 28890,
        "meta_element_set_no": 999,
        "meta_rev_at_epoch": 7188,
        "meta_bstar": 0.00012562,
        "meta_mean_motion_dot": 6.01e-06,
        "meta_mean_motion_ddot": 0,
        "tle_line1": "1 28890U 05043A   25336.51260917  .00000601  00000+0  12562-3 0  9994",
        "tle_line2": "2 28890  98.2649 103.9958 0014789 172.4634 187.6793 14.63350150 71881"
      },
      "geometry": {
        "type": "Point",
        "coordinates": [
          -72.77817080855029,
          19.32278298607429
        ]
      }
    },
    {
      "type": "Feature",
      "properties": {
        "norad_id": 33320,
        "name": "HUANJING 1A (HJ-1A)",
        "group": "dmc",
        "lat": -14.604686525856973,
        "lon": 143.5222089599739,
        "alt_km": 632.7187452667449,
        "timestamp": "2025-12-02T19:35:50.228380+00:00",
        "meta_object_name": "HUANJING 1A (HJ-1A)",
        "meta_object_id": "2008-041A",
        "meta_epoch": "2025-12-02T12:14:54.784320",
        "meta_mean_motion": 14.83341563,
        "meta_eccentricity": 0.002068,
        "meta_inclination": 97.6535,
        "meta_ra_of_asc_node": 325.2368,
        "meta_arg_of_pericenter": 66.0297,
        "meta_mean_anomaly": 294.308,
        "meta_ephemeris_type": 0,
        "meta_classification_type": "U",
        "meta_norad_cat_id": 33320,
        "meta_element_set_no": 999,
        "meta_rev_at_epoch": 92924,
        "meta_bstar": 0.00025021,
        "meta_mean_motion_dot": 2.006e-05,
        "meta_mean_motion_ddot": 0,
        "tle_line1": "1 33320U 08041A   25336.51035630  .00002006  00000+0  25021-3 0  9996",
        "tle_line2": "2 33320  97.6535 325.2368 0020680  66.0297 294.3080 14.83341563929243"
      },
      "geometry": {
        "type": "Point",
        "coordinates": [
          143.5222089599739,
          -14.604686525856973
        ]
      }
    },
    {
      "type": "Feature",
      "properties": {
        "norad_id": 33321,
        "name": "HUANJING 1B (HJ-1B)",
        "group": "dmc",
        "lat": 73.71918077087146,
        "lon": -58.106359185642965,
        "alt_km": 590.7209207004798,
        "timestamp": "2025-12-02T19:35:50.228394+00:00",
        "meta_object_name": "HUANJING 1B (HJ-1B)",
        "meta_object_id": "2008-041B",
        "meta_epoch": "2025-12-02T12:46:48.766368",
        "meta_mean_motion": 14.8277821,
        "meta_eccentricity": 0.0038146,
        "meta_inclination": 97.6395,
        "meta_ra_of_asc_node": 328.9816,
        "meta_arg_of_pericenter": 108.0171,
        "meta_mean_anomaly": 252.5206,
        "meta_ephemeris_type": 0,
        "meta_classification_type": "U",
        "meta_norad_cat_id": 33321,
        "meta_element_set_no": 999,
        "meta_rev_at_epoch": 92926,
        "meta_bstar": 0.00019968,
        "meta_mean_motion_dot": 1.583e-05,
        "meta_mean_motion_ddot": 0,
        "tle_line1": "1 33321U 08041B   25336.53250887  .00001583  00000+0  19968-3 0  9994",
        "tle_line2": "2 33321  97.6395 328.9816 0038146 108.0171 252.5206 14.82778210929260"
      },
      "geometry": {
        "type": "Point",
        "coordinates": [
          -58.106359185642965,
          73.71918077087146
        ]
      }
    },
    {
      "type": "Feature",
      "properties": {
        "norad_id": 33446,
        "name": "YAOGAN-4",
        "group": "dmc",
        "lat": -7.7201126599254275,
        "lon": -91.90504964290353,
        "alt_km": 614.8915918501752,
        "timestamp": "2025-12-02T19:35:50.228407+00:00",
        "meta_object_name": "YAOGAN-4",
        "meta_object_id": "2008-061A",
        "meta_epoch": "2025-12-02T09:54:49.934880",
        "meta_mean_motion": 14.82629216,
        "meta_eccentricity": 0.0014484,
        "meta_inclination": 97.9168,
        "meta_ra_of_asc_node": 266.6147,
        "meta_arg_of_pericenter": 357.7932,
        "meta_mean_anomaly": 2.3215,
        "meta_ephemeris_type": 0,
        "meta_classification_type": "U",
        "meta_norad_cat_id": 33446,
        "meta_element_set_no": 999,
        "meta_rev_at_epoch": 91650,
        "meta_bstar": 0.00026593,
        "meta_mean_motion_dot": 2.092e-05,
        "meta_mean_motion_ddot": 0,
        "tle_line1": "1 33446U 08061A   25336.41307795  .00002092  00000+0  26593-3 0  9990",
        "tle_line2": "2 33446  97.9168 266.6147 0014484 357.7932   2.3215 14.82629216916506"
      },
      "geometry": {
        "type": "Point",
        "coordinates": [
          -91.90504964290353,
          -7.7201126599254275
        ]
      }
    },
    {
      "type": "Feature",
      "properties": {
        "norad_id": 35681,
        "name": "DEIMOS-1",
        "group": "dmc",
        "lat": 37.100675333191504,
        "lon": 131.99787554851005,
        "alt_km": 641.8036457386333,
        "timestamp": "2025-12-02T19:35:50.228418+00:00",
        "meta_object_name": "DEIMOS-1",
        "meta_object_id": "2009-041A",
        "meta_epoch": "2025-12-02T12:54:54.313632",
        "meta_mean_motion": 14.74926986,
        "meta_eccentricity": 0.0002667,
        "meta_inclination": 97.7145,
        "meta_ra_of_asc_node": 137.6169,
        "meta_arg_of_pericenter": 98.1757,
        "meta_mean_anomaly": 261.9755,
        "meta_ephemeris_type": 0,
        "meta_classification_type": "U",
        "meta_norad_cat_id": 35681,
        "meta_element_set_no": 999,
        "meta_rev_at_epoch": 87789,
        "meta_bstar": 0.00015712,
        "meta_mean_motion_dot": 1.008e-05,
        "meta_mean_motion_ddot": 0,
        "tle_line1": "1 35681U 09041A   25336.53812863  .00001008  00000+0  15712-3 0  9999",
        "tle_line2": "2 35681  97.7145 137.6169 0002667  98.1757 261.9755 14.74926986877899"
      },
      "geometry": {
        "type": "Point",
        "coordinates": [
          131.99787554851005,
          37.100675333191504
        ]
      }
    },
    {
      "type": "Feature",
      "properties": {
        "norad_id": 35683,
        "name": "UK-DMC 2",
        "group": "dmc",
        "lat": 28.470789204848604,
        "lon": 107.70624517001197,
        "alt_km": 641.7699879864149,
        "timestamp": "2025-12-02T19:35:50.228429+00:00",
        "meta_object_name": "UK-DMC 2",
        "meta_object_id": "2009-041C",
        "meta_epoch": "2025-12-02T11:19:48.098208",
        "meta_mean_motion": 14.75584626,
        "meta_eccentricity": 0.0001272,
        "meta_inclination": 97.8556,
        "meta_ra_of_asc_node": 111.6655,
        "meta_arg_of_pericenter": 102.9413,
        "meta_mean_anomaly": 257.1939,
        "meta_ephemeris_type": 0,
        "meta_classification_type": "U",
        "meta_norad_cat_id": 35683,
        "meta_element_set_no": 999,
        "meta_rev_at_epoch": 87755,
        "meta_bstar": 0.000221,
        "meta_mean_motion_dot": 1.458e-05,
        "meta_mean_motion_ddot": 0,
        "tle_line1": "1 35683U 09041C   25336.47208447  .00001458  00000+0  22100-3 0  9999",
        "tle_line2": "2 35683  97.8556 111.6655 0001272 102.9413 257.1939 14.75584626877550"
      },
      "geometry": {
        "type": "Point",
        "coordinates": [
          107.70624517001197,
          28.470789204848604
        ]
      }
    },
    {
      "type": "Feature",
      "properties": {
        "norad_id": 40715,
        "name": "DMC3-FM1",
        "group": "dmc",
        "lat": 81.9843503240627,
        "lon": 131.23436577389063,
        "alt_km": 604.9214934368465,
        "timestamp": "2025-12-02T19:35:50.228439+00:00",
        "meta_object_name": "DMC3-FM1",
        "meta_object_id": "2015-032A",
        "meta_epoch": "2025-12-02T12:44:14.910432",
        "meta_mean_motion": 14.85411217,
        "meta_eccentricity": 0.0005405,
        "meta_inclination": 97.67,
        "meta_ra_of_asc_node": 204.0946,
        "meta_arg_of_pericenter": 357.3037,
        "meta_mean_anomaly": 2.8149,
        "meta_ephemeris_type": 0,
        "meta_classification_type": "U",
        "meta_norad_cat_id": 40715,
        "meta_element_set_no": 999,
        "meta_rev_at_epoch": 56071,
        "meta_bstar": 0.00013869,
        "meta_mean_motion_dot": 1.143e-05,
        "meta_mean_motion_ddot": 0,
        "tle_line1": "1 40715U 15032A   25336.53072813  .00001143  00000+0  13869-3 0  9994",
        "tle_line2": "2 40715  97.6700 204.0946 0005405 357.3037   2.8149 14.85411217560712"
      },
      "geometry": {
        "type": "Point",
        "coordinates": [
          131.23436577389063,
          81.9843503240627
        ]
      }
    },
    {
      "type": "Feature",
      "properties": {
        "norad_id": 40716,
        "name": "DMC3-FM2",
        "group": "dmc",
        "lat": -32.471322561188884,
        "lon": -149.26994572587643,
        "alt_km": 614.8842695933081,
        "timestamp": "2025-12-02T19:35:50.228450+00:00",
        "meta_object_name": "DMC3-FM2",
        "meta_object_id": "2015-032B",
        "meta_epoch": "2025-12-02T11:39:39.436704",
        "meta_mean_motion": 14.854123,
        "meta_eccentricity": 0.0006061,
        "meta_inclination": 97.6757,
        "meta_ra_of_asc_node": 205.4879,
        "meta_arg_of_pericenter": 1.469,
        "meta_mean_anomaly": 358.6542,
        "meta_ephemeris_type": 0,
        "meta_classification_type": "U",
        "meta_norad_cat_id": 40716,
        "meta_element_set_no": 999,
        "meta_rev_at_epoch": 56070,
        "meta_bstar": 0.00014258,
        "meta_mean_motion_dot": 1.177e-05,
        "meta_mean_motion_ddot": 0,
        "tle_line1": "1 40716U 15032B   25336.48587311  .00001177  00000+0  14258-3 0  9993",
        "tle_line2": "2 40716  97.6757 205.4879 0006061   1.4690 358.6542 14.85412300560708"
      },
      "geometry": {
        "type": "Point",
        "coordinates": [
          -149.26994572587643,
          -32.471322561188884
        ]
      }
    },
    {
      "type": "Feature",
      "properties": {
        "norad_id": 40717,
        "name": "DMC3-FM3",
        "group": "dmc",
        "lat": -31.85495811167996,
        "lon": 22.622829709908693,
        "alt_km": 621.705924743459,
        "timestamp": "2025-12-02T19:35:50.228460+00:00",
        "meta_object_name": "DMC3-FM3",
        "meta_object_id": "2015-032C",
        "meta_epoch": "2025-12-02T13:47:42.687168",
        "meta_mean_motion": 14.85406568,
        "meta_eccentricity": 0.0005406,
        "meta_inclination": 97.6811,
        "meta_ra_of_asc_node": 207.2,
        "meta_arg_of_pericenter": 3.341,
        "meta_mean_anomaly": 356.7841,
        "meta_ephemeris_type": 0,
        "meta_classification_type": "U",
        "meta_norad_cat_id": 40717,
        "meta_element_set_no": 999,
        "meta_rev_at_epoch": 56072,
        "meta_bstar": 0.0001168,
        "meta_mean_motion_dot": 9.54e-06,
        "meta_mean_motion_ddot": 0,
        "tle_line1": "1 40717U 15032C   25336.57479962  .00000954  00000+0  11680-3 0  9994",
        "tle_line2": "2 40717  97.6811 207.2000 0005406   3.3410 356.7841 14.85406568560721"
      },
      "geometry": {
        "type": "Point",
        "coordinates": [
          22.622829709908693,
          -31.85495811167996
        ]
      }
    }
  ]
}